#dP2022  1  1  0  0  0.00000000     576   u+U IGS14 FIT  WHU
## 2190 518400.00000000   300.00000000 59580 0.0000000000000
+  111   G01G02G03G04G05G06G07G08G09G10G12G13G14G15G16G17G18
+        G19G20G21G23G24G25G26G27G29G30G31G32R01R02R03R04R05
+        R07R08R09R11R12R13R14R15R17R18R19R20R21R22R24C01C02
+        C03C04C05C07C08C09C10C11C12C13C14C19C20C21C22C23C24
+        C25C26C27C28C29C30C32C33C34C35C36C37C38C39C40C41C42
+        C43C44C45C46E01E02E03E04E05E07E08E09E11E12E13E15E19
+        E21E24E25E26E27E30E31E33E36  0  0  0  0  0  0  0  0
++         4  4  4  4  4  4  4  4  4  4  4  4  5  4  5  4  5
++         4  4  4  5  4  4  5  4  4  4  5  4  4  4  4  4  4
++         5  4  5  4  4  4  4  4  4  4  4  5  4  4  4  9  9
++         9 10 10 10  9  7  9 10  9  9 10 10 10 10 10 10 10
++        10  9 10  9 10 10 10 10 10 10 10  9 10  9 10  9  9
++        10 10 10 10  9  9  9  9  9  9  9  9  9  9  9  9  9
++         9  9  9  9  9  9  9  9  9  0  0  0  0  0  0  0  0
%c M  cc GPS ccc cccc cccc cccc cccc ccccc ccccc ccccc ccccc
%c cc cc ccc ccc cccc cccc cccc cccc ccccc ccccc ccccc ccccc
%f  1.2500000  1.025000000  0.00000000000  0.000000000000000
%f  0.0000000  0.000000000  0.00000000000  0.000000000000000
%i    0    0    0    0      0      0      0      0         0
%i    0    0    0    0      0      0      0      0         0
/* GNSS RESEARCH CENTER, WUHAN UNIVERSITY (WHU), P. R. CHINA
/* POSITION AND NAVIGATION DATA ANALYST (PANDA) SOFTWARE    
/*
/* PCV:IGS14_2187 OL/AL:FES2004  NONE     NN ORB:CoM CLK:CoN
*  2022  1  1 18  5  0.00000000
PG01 -21397.714741 -14314.794032  -7500.911903    468.486435
PG02   2165.166415  16315.084687  21492.239477   -647.456921
PG03 -12652.543444 -18150.104763  14668.327536    -62.038336
PG04 -14351.772699  -7701.868384  20994.851977   -196.800087
PG05   5439.334439  25898.085961  -1035.346398    -66.411826
PG06 -14416.312969   8833.381904  20570.588714    158.775969
PG07 -25264.538722  -4824.567255  -7201.947829    297.422615
PG08  -4267.000416 -15420.474525 -21158.162394    -50.396550
PG09 -21391.604592   3373.153613  15324.402536   -359.110592
PG10  12324.282281 -11538.210341 -20293.049521   -282.888606
PG12  10254.409174  20754.375613  12883.707078   -149.460311
PG13  -4792.409473  17992.307156 -19034.606098    238.596351
PG14 -13287.844628  10948.834542 -20210.842844    -64.365210
PG15   7015.801854  15165.513705 -20999.169803    -94.752738
PG16   -113.666584 -26225.566065   1757.368045   -449.346855
PG17 -22710.745073  13459.555838  -2658.421059    555.573279
PG18  24841.277880   4259.064152  -8543.662255    268.933883
PG19 -20126.501038  16405.252230   4863.734955     99.940040
PG20     98.717846  24850.213191   9721.615208    517.376778
PG21 -15778.116874 -15565.791229 -14380.969813    155.164943
PG23  15341.945551   1128.358782 -21675.874128     15.611548
PG24  19117.138153  14996.444738 -11488.900612    276.735688
PG25  15169.159670   9542.762970  19419.608781    264.576004
PG26   6576.671896 -21168.373527  14331.807403    170.487436
PG27   6662.570723 -19578.229593 -16626.202879     41.979630
PG29  19672.442185   1131.770292  17796.364018   -461.737915
PG30 -21359.832804   3308.170487 -15522.233562   -503.681327
PG31  12815.245376 -10459.739220  20751.433535   -157.882765
PG32  20547.719223 -16665.882463    378.219094    -43.836422
PR01  14428.130173 -11177.989743 -17826.785767      7.297931
PR02  10989.637331 -22977.966269    332.492529    505.168615
PR03    707.018406 -19534.264964  16392.216676     49.175079
PR04  -9516.820881  -5164.129810  23118.562548    121.608138
PR05 -14693.504783  12007.458847  17068.432365     85.206878
PR07   -374.816578  19208.960382 -16774.937961    -38.731091
PR08   9633.068600   5137.636337 -23002.736150    -62.860554
PR09   -614.744294  15983.228003 -19832.369136     31.824604
PR11  17216.586597  15561.747481  10586.044566     47.953685
PR12  12622.017110   -405.217440  22188.846778    291.381574
PR13   1218.233777 -15173.637153  20447.459525    -16.464469
PR14 -11674.630374 -21851.952895   6100.953677     72.750574
PR15 -17082.487778 -15287.411622 -11165.909608     99.193473
PR17  -6658.908138  -9793.439191 -22571.262716    488.774681
PR18 -21564.183354  -4374.873390 -12927.097120    102.440087
PR19 -25294.071379   2142.938607   2491.972254   -172.835659
PR20 -13431.805108   9249.804375  19642.945143    -62.272247
PR21   8168.685232   9473.423512  22241.503612   -266.758595
PR22  21979.932381   4107.467288  12177.821614   -155.292696
PR24  12523.890833 -10052.885410 -19799.424876     73.776319
PC01 -34325.930891  24458.868762    365.982077   -282.837069
PC02   4289.517462  41945.775111    263.142607    751.929755
PC03 -14766.565765  39455.647200   1005.158833    488.104318
PC04 -39580.365082  14471.358095    544.538192   -182.435545
PC05  21816.002612  36078.669211      5.163215    351.539745
PC07  -9041.277442  40990.284797  -2997.552006     51.644454
PC08   1942.413726  27303.804550  32132.040763     25.359837
PC09  -8249.323999  25499.223605 -32345.761087   -398.251058
PC10  -3894.125678  41636.153839   2989.501590    138.709964
PC11  21594.567163   6087.317613  16687.652154   -297.097089
PC12   3902.386772  14865.037928  23335.653780   -431.302229
PC13   6435.567644  30263.080537  28904.988750   -159.978707
PC14  12669.471959  11582.960886 -21973.675878    480.286130
PC19 -16067.058434   -638.333947  22828.178126    915.236248
PC20  -8180.963992 -19151.366742  18595.964788   -800.125891
PC21  -5149.683524  27262.425764  -2917.232388   -956.260921
PC22 -14977.444599  18938.859121  13972.193624   -962.240176
PC23  14544.186464  -8147.429022  22379.670524   -965.228703
PC24  17145.377583  21630.805937  -4247.486821   -947.708572
PC25  22852.271629   8363.895878  13673.483047   -801.260304
PC26   3348.025845  21087.437774 -18001.321719    799.532624
PC27   6495.389999 -16833.947896 -21298.399031    654.501070
PC28  23337.662678 -12350.972993  -9031.390206     15.765219
PC29 -26472.927742   1504.371529  -8707.881610    495.552475
PC30 -13924.099286 -11348.877797 -21362.819084    490.128017
PC32   4961.771795 -27311.949693   2884.586234   -957.031834
PC33  16073.406280    635.084060 -22802.187255   -956.807509
PC34  14775.306948  10920.673202  20991.439109   -501.530846
PC35 -23277.895765  12905.118833   8444.056792     73.187126
PC36 -22683.549373  -9290.774540 -13307.451211   -851.318773
PC37  -1795.291044 -20699.696969  18626.148375   -928.518977
PC38  -7327.895608  23936.285700  33983.911011    200.884576
PC39 -23250.921595  25898.117064 -23938.397336     34.486475
PC40 -15769.030704  38247.077725  -7795.925123    231.748166
PC41  15037.178731 -18676.296004 -14222.553758   -919.614295
PC42   7637.850226  19896.296058 -17970.247425   -930.348705
PC43  26303.397252   -902.126523   9239.583208   -950.762219
PC44  -6167.095208  17182.433491  21109.849449    517.511642
PC45 -14261.317572   8305.568124 -22501.958114    642.429780
PC46 -17954.847522 -21120.458234   2985.242517    -91.834466
PE01 -15628.869595   5649.473644 -24493.988308   -550.513258
PE02  15588.042127  -5778.095647  24489.083763    270.772436
PE03  23797.762968 -13971.691878 -10725.483831   -512.545260
PE04 -15608.517813  24016.648078  -7477.312316   -933.471620
PE05  18146.414797   4475.189235 -22956.806903   -221.993317
PE07  -2009.064291 -20069.815276  21664.015970   -623.832483
PE08  15254.518674 -24114.849870   7877.983402   5879.189813
PE09   2211.945077  19842.458822 -21853.667735   5409.836048
PE11  12699.412459  16887.752343  20722.832050   4770.071454
PE12 -10191.648232  13757.189704  24154.207608   4831.529308
PE13 -12119.137995 -16852.770232 -21091.802494    425.247681
PE15  10253.901528 -13659.620448 -24162.326857    771.845115
PE19 -23841.392455  11970.218664  12831.726646    466.849921
PE21 -17494.626007 -14917.061895 -18637.121109   -708.711149
PE24   8528.008952  28357.815423    578.399583  -1311.837606
PE25  17459.419668  15177.860424  18479.758004   -558.825002
PE26 -27587.104042  -9678.117629  -4604.545350   -637.994770
PE27  -9378.172123 -28010.660176  -1735.153600   -199.952993
PE30   5107.916090 -23787.389378  16835.325874   -157.271395
PE31  -4171.806439  24533.142352 -16031.271552   -490.154551
PE33 -26491.661268   2437.103715  12993.980092   -460.819093
PE36  27228.875210  10134.185964   5661.812371   -312.053989
EOF
